{
  "type": "FeatureCollection",
  "features": [
    {
      "type": "Feature",
      "properties": {
        "norad_id": 41866,
        "name": "GOES 16",
        "group": "weather",
        "lat": -0.019588644708514624,
        "lon": -78.45127086907094,
        "alt_km": 35772.68325306241,
        "timestamp": "2025-12-26T19:22:38.536863+00:00",
        "meta_object_name": "GOES 16",
        "meta_object_id": "2016-071A",
        "meta_epoch": "2025-12-26T13:19:40.740960",
        "meta_mean_motion": 1.00271665,
        "meta_eccentricity": 0.00032706,
        "meta_inclination": 0.0794,
        "meta_ra_of_asc_node": 100.8251,
        "meta_arg_of_pericenter": 166.7949,
        "meta_mean_anomaly": 282.9377,
        "meta_ephemeris_type": 0,
        "meta_classification_type": "U",
        "meta_norad_cat_id": 41866,
        "meta_element_set_no": 999,
        "meta_rev_at_epoch": 3337,
        "meta_bstar": 0,
        "meta_mean_motion_dot": -6.9e-07,
        "meta_mean_motion_ddot": 0,
        "tle_line1": "1 41866U 16071A   25360.55533265 -.00000069  00000+0  00000+0 0  9994",
        "tle_line2": "2 41866   0.0794 100.8251 0003270 166.7949 282.9377  1.00271665 33370"
      },
      "geometry": {
        "type": "Point",
        "coordinates": [
          -78.45127086907094,
          -0.019588644708514624
        ]
      }
    },
    {
      "type": "Feature",
      "properties": {
        "norad_id": 41882,
        "name": "FENGYUN 4A",
        "group": "weather",
        "lat": 1.7516608894905599,
        "lon": 149.69651380522689,
        "alt_km": 35783.899503569584,
        "timestamp": "2025-12-26T19:22:38.536877+00:00",
        "meta_object_name": "FENGYUN 4A",
        "meta_object_id": "2016-077A",
        "meta_epoch": "2025-12-26T09:22:21.494784",
        "meta_mean_motion": 1.00262391,
        "meta_eccentricity": 0.00045342,
        "meta_inclination": 1.8816,
        "meta_ra_of_asc_node": 82.2577,
        "meta_arg_of_pericenter": 143.1389,
        "meta_mean_anomaly": 133.8992,
        "meta_ephemeris_type": 0,
        "meta_classification_type": "U",
        "meta_norad_cat_id": 41882,
        "meta_element_set_no": 999,
        "meta_rev_at_epoch": 3319,
        "meta_bstar": 0,
        "meta_mean_motion_dot": -3.36e-06,
        "meta_mean_motion_ddot": 0,
        "tle_line1": "1 41882U 16077A   25360.39052656 -.00000336  00000+0  00000+0 0  9997",
        "tle_line2": "2 41882   1.8816  82.2577 0004534 143.1389 133.8992  1.00262391 33190"
      },
      "geometry": {
        "type": "Point",
        "coordinates": [
          149.69651380522689,
          1.7516608894905599
        ]
      }
    },
    {
      "type": "Feature",
      "properties": {
        "norad_id": 41884,
        "name": "CYGFM05",
        "group": "weather",
        "lat": 24.067690060490758,
        "lon": -5.058512418497267,
        "alt_km": 418.7318579397879,
        "timestamp": "2025-12-26T19:22:38.536889+00:00",
        "meta_object_name": "CYGFM05",
        "meta_object_id": "2016-078A",
        "meta_epoch": "2025-12-26T06:48:05.114592",
        "meta_mean_motion": 15.48149992,
        "meta_eccentricity": 0.00104458,
        "meta_inclination": 34.9603,
        "meta_ra_of_asc_node": 318.6293,
        "meta_arg_of_pericenter": 299.4852,
        "meta_mean_anomaly": 60.4828,
        "meta_ephemeris_type": 0,
        "meta_classification_type": "U",
        "meta_norad_cat_id": 41884,
        "meta_element_set_no": 999,
        "meta_rev_at_epoch": 50186,
        "meta_bstar": 0.00037991921,
        "meta_mean_motion_dot": 0.00020625,
        "meta_mean_motion_ddot": 0,
        "tle_line1": "1 41884U 16078A   25360.28339253  .00020625  00000+0  37992-3 0  9995",
        "tle_line2": "2 41884  34.9603 318.6293 0010445 299.4852  60.4828 15.48149992501867"
      },
      "geometry": {
        "type": "Point",
        "coordinates": [
          -5.058512418497267,
          24.067690060490758
        ]
      }
    },
    {
      "type": "Feature",
      "properties": {
        "norad_id": 41885,
        "name": "CYGFM04",
        "group": "weather",
        "lat": 31.298383564046716,
        "lon": -9.855099121112202,
        "alt_km": 408.6447736362461,
        "timestamp": "2025-12-26T19:22:38.536901+00:00",
        "meta_object_name": "CYGFM04",
        "meta_object_id": "2016-078B",
        "meta_epoch": "2025-12-26T05:11:40.920576",
        "meta_mean_motion": 15.50945052,
        "meta_eccentricity": 0.00089688,
        "meta_inclination": 34.9347,
        "meta_ra_of_asc_node": 293.4499,
        "meta_arg_of_pericenter": 323.6494,
        "meta_mean_anomaly": 36.3618,
        "meta_ephemeris_type": 0,
        "meta_classification_type": "U",
        "meta_norad_cat_id": 41885,
        "meta_element_set_no": 999,
        "meta_rev_at_epoch": 50203,
        "meta_bstar": 0.00038816958,
        "meta_mean_motion_dot": 0.00023266,
        "meta_mean_motion_ddot": 0,
        "tle_line1": "1 41885U 16078B   25360.21644584  .00023266  00000+0  38817-3 0  9996",
        "tle_line2": "2 41885  34.9347 293.4499 0008968 323.6494  36.3618 15.50945052502033"
      },
      "geometry": {
        "type": "Point",
        "coordinates": [
          -9.855099121112202,
          31.298383564046716
        ]
      }
    },
    {
      "type": "Feature",
      "properties": {
        "norad_id": 41886,
        "name": "CYGFM02",
        "group": "weather",
        "lat": 16.953417439806397,
        "lon": 81.8241375576937,
        "alt_km": 413.3375056881923,
        "timestamp": "2025-12-26T19:22:38.536911+00:00",
        "meta_object_name": "CYGFM02",
        "meta_object_id": "2016-078C",
        "meta_epoch": "2025-12-26T04:50:47.956416",
        "meta_mean_motion": 15.52365862,
        "meta_eccentricity": 0.00105906,
        "meta_inclination": 34.9437,
        "meta_ra_of_asc_node": 291.6942,
        "meta_arg_of_pericenter": 325.3429,
        "meta_mean_anomaly": 34.6603,
        "meta_ephemeris_type": 0,
        "meta_classification_type": "U",
        "meta_norad_cat_id": 41886,
        "meta_element_set_no": 999,
        "meta_rev_at_epoch": 50216,
        "meta_bstar": 0.00040372119,
        "meta_mean_motion_dot": 0.00025494,
        "meta_mean_motion_ddot": 0,
        "tle_line1": "1 41886U 16078C   25360.20194394  .00025494  00000+0  40372-3 0  9999",
        "tle_line2": "2 41886  34.9437 291.6942 0010590 325.3429  34.6603 15.52365862502164"
      },
      "geometry": {
        "type": "Point",
        "coordinates": [
          81.8241375576937,
          16.953417439806397
        ]
      }
    },
    {
      "type": "Feature",
      "properties": {
        "norad_id": 41887,
        "name": "CYGFM01",
        "group": "weather",
        "lat": 29.8868406498461,
        "lon": 82.05672333800356,
        "alt_km": 421.6053257002859,
        "timestamp": "2025-12-26T19:22:38.536922+00:00",
        "meta_object_name": "CYGFM01",
        "meta_object_id": "2016-078D",
        "meta_epoch": "2025-12-26T14:13:22.088928",
        "meta_mean_motion": 15.48759806,
        "meta_eccentricity": 0.00102008,
        "meta_inclination": 34.9435,
        "meta_ra_of_asc_node": 318.8584,
        "meta_arg_of_pericenter": 294.2358,
        "meta_mean_anomaly": 65.7298,
        "meta_ephemeris_type": 0,
        "meta_classification_type": "U",
        "meta_norad_cat_id": 41887,
        "meta_element_set_no": 999,
        "meta_rev_at_epoch": 50185,
        "meta_bstar": 0.00041171202,
        "meta_mean_motion_dot": 0.00022845,
        "meta_mean_motion_ddot": 0,
        "tle_line1": "1 41887U 16078D   25360.59261677  .00022845  00000+0  41171-3 0  9996",
        "tle_line2": "2 41887  34.9435 318.8584 0010200 294.2358  65.7298 15.48759806501850"
      },
      "geometry": {
        "type": "Point",
        "coordinates": [
          82.05672333800356,
          29.8868406498461
        ]
      }
    },
    {
      "type": "Feature",
      "properties": {
        "norad_id": 41888,
        "name": "CYGFM08",
        "group": "weather",
        "lat": -26.012152869495228,
        "lon": 164.6116693014089,
        "alt_km": 418.33930745191446,
        "timestamp": "2025-12-26T19:22:38.536933+00:00",
        "meta_object_name": "CYGFM08",
        "meta_object_id": "2016-078E",
        "meta_epoch": "2025-12-26T04:28:38.500608",
        "meta_mean_motion": 15.4998199,
        "meta_eccentricity": 0.00113412,
        "meta_inclination": 34.946,
        "meta_ra_of_asc_node": 304.349,
        "meta_arg_of_pericenter": 314.88,
        "meta_mean_anomaly": 45.1001,
        "meta_ephemeris_type": 0,
        "meta_classification_type": "U",
        "meta_norad_cat_id": 41888,
        "meta_element_set_no": 999,
        "meta_rev_at_epoch": 50202,
        "meta_bstar": 0.00037787487,
        "meta_mean_motion_dot": 0.00021899,
        "meta_mean_motion_ddot": 0,
        "tle_line1": "1 41888U 16078E   25360.18655672  .00021899  00000+0  37787-3 0  9990",
        "tle_line2": "2 41888  34.9460 304.3490 0011341 314.8800  45.1001 15.49981990502029"
      },
      "geometry": {
        "type": "Point",
        "coordinates": [
          164.6116693014089,
          -26.012152869495228
        ]
      }
    }
  ]
}